{
    "links": {
        "self": "http://www.neowsapp.com/rest/v1/neo/3732906?api_key=iIulBulltgU6a56xZRHN4H3l9WmuAYTsLGpBGhQ2"
    },
    "id": "3732906",
    "neo_reference_id": "3732906",
    "name": "(2015 UR67)",
    "designation": "2015 UR67",
    "nasa_jpl_url": "http://ssd.jpl.nasa.gov/sbdb.cgi?sstr=3732906",
    "absolute_magnitude_h": 26.3,
    "estimated_diameter": {
        "kilometers": {
            "estimated_diameter_min": 0.0146067964,
            "estimated_diameter_max": 0.0326617897
        },
        "meters": {
            "estimated_diameter_min": 14.6067964271,
            "estimated_diameter_max": 32.6617897446
        },
        "miles": {
            "estimated_diameter_min": 0.0090762397,
            "estimated_diameter_max": 0.020295089
        },
        "feet": {
            "estimated_diameter_min": 47.92256199,
            "estimated_diameter_max": 107.1581062656
        }
    },
    "is_potentially_hazardous_asteroid": false,
    "close_approach_data": [
        {
            "close_approach_date": "2015-10-27",
            "close_approach_date_full": "2015-Oct-27 10:11",
            "epoch_date_close_approach": 1445940660000,
            "relative_velocity": {
                "kilometers_per_second": "12.2751574727",
                "kilometers_per_hour": "44190.5669018665",
                "miles_per_hour": "27458.2997507737"
            },
            "miss_distance": {
                "astronomical": "0.0112312968",
                "lunar": "4.3689744552",
                "kilometers": "1680178.078617816",
                "miles": "1044014.2464692208"
            },
            "orbiting_body": "Earth"
        }
    ],
    "orbital_data": {
        "orbit_id": "16",
        "orbit_determination_date": "2018-05-10 06:25:42",
        "first_observation_date": "2015-10-31",
        "last_observation_date": "2015-11-20",
        "data_arc_in_days": 20,
        "observations_used": 100,
        "orbit_uncertainty": "7",
        "minimum_orbit_intersection": ".00340085",
        "jupiter_tisserand_invariant": "3.066",
        "epoch_osculation": "2459000.5",
        "eccentricity": ".6464924250037787",
        "semi_major_axis": "2.625290819721435",
        "inclination": "1.138580324332923",
        "ascending_node_longitude": "219.4882169878243",
        "orbital_period": "1553.690666177045",
        "perihelion_distance": ".9280601913395666",
        "perihelion_argument": "136.2573011033944",
        "aphelion_distance": "4.322521448103304",
        "perihelion_time": "2458846.337978874973",
        "mean_anomaly": "35.72031988939412",
        "mean_motion": ".2317063543194238",
        "equinox": "J2000",
        "orbit_class": {
            "orbit_class_type": "APO",
            "orbit_class_description": "Near-Earth asteroid orbits which cross the Earth’s orbit similar to that of 1862 Apollo",
            "orbit_class_range": "a (semi-major axis) > 1.0 AU; q (perihelion) < 1.017 AU"
        }
    },
    "is_sentry_object": false
}